STARLINK-1204
1 25203C 20012AB  21325.09114000  .01244517  00000-0  81166-2 0  3258
2 25203  53.0531 212.5551 0001240  61.4913  89.3470 15.73961337    12
